CSS (TIANHE)            
1 48274U 21035A   24044.54283212  .00046267  00000+0  48137-3 0  9997
2 48274  41.4684 124.7119 0007261   2.9701 357.1181 15.63735127159588
